{
  "norad_id": 67051,
  "name": "STARLINK-35706",
  "history": [
    {
      "epoch": "2026-03-28T21:03:10.125792Z",
      "apogee_km": 484.1041763731837,
      "perigee_km": 481.87019433843216,
      "latitude_deg": 8.78502676896609e-07,
      "longitude_deg": 147.63176592350746,
      "height_km": 482.6557021101783,
      "semi_major_axis_km": 6861.124185355808,
      "eccentricity": 0.0001628,
      "inclination_deg": 43.0045,
      "raan_deg": 289.7153,
      "arg_perigee_deg": 275.5938,
      "mean_anomaly_deg": 84.4728,
      "mean_motion_rev_day": 15.27600676
    }
  ]
}